1 26871U 01031A   12035.10811289 -.00000283  00000-0  10000-3 0  4386
2 26871 001.9576 074.4691 0001626 278.8763 119.0072 01.00284775 38657